QIANFAN-52              
1 62253U 24232S   26066.08792352  .00000083  00000+0  11066-3 0  9994
2 62253  89.0057  32.5935 0013983 315.2042  44.7979 13.51001011 79332
QIANFAN-53              
1 62254U 24232T   26066.14137985  .00000085  00000+0  11361-3 0  9997
2 62254  89.0064  32.6989 0012903 316.8432  43.1707 13.51003741 79303
QIANFAN-54              
1 62255U 24232U   26066.10849876  .00000099  00000+0  13468-3 0  9998
2 62255  89.0056  32.3733 0003008  36.9711 323.1646 13.51003198110805
QIANFAN-55              
1 62785U 25016A   26066.13455929  .00000038  00000+0  39701-4 0  9994
2 62785  88.9691  94.4774 0019464 103.8080 256.5239 13.50996388 58580
QIANFAN-56              
1 62786U 25016B   26066.15092889  .00000037  00000+0  37555-4 0  9993
2 62786  88.9664  94.2894 0018097 105.8032 254.5116 13.50998287 58630
QIANFAN-57              
1 62787U 25016C   26066.10984240  .00000051  00000+0  59624-4 0  9997
2 62787  88.9695  94.4735 0001380 101.1426 258.9880 13.50997230 58592
QIANFAN-58              
1 62788U 25016D   26066.15503903  .00000046  00000+0  51863-4 0  9997
2 62788  88.9665  94.2743 0016031  99.0131 261.2835 13.50998849 58644
QIANFAN-59              
1 62789U 25016E   26066.10582061  .00000056  00000+0  67962-4 0  9993
2 62789  88.9688  94.3732 0016388 102.4281 257.8705 13.50994722 58631
QIANFAN-60              
1 62790U 25016F   26066.13874211  .00000033  00000+0  31631-4 0  9998
2 62790  88.9669  94.3251 0017959  99.4462 260.8720 13.51009384 58621
QIANFAN-61              
1 62791U 25016G   26064.98563812 -.01754025  00000+0 -30903+1 0  9999
2 62791  88.9744  94.6579 0015183 117.5402 242.7291 13.46909473 58483
QIANFAN-62              
1 62792U 25016H   26066.10164836  .00000044  00000+0  48414-4 0  9991
2 62792  88.9683  94.3722 0018255  99.1860 261.1357 13.50996652 58623
QIANFAN-63              
1 62793U 25016J   26066.12637192  .00000037  00000+0  38706-4 0  9999
2 62793  88.9690  94.3268 0018302 103.8841 256.4347 13.50995305 58666
QIANFAN-64              
1 62794U 25016K   26066.09346655  .00000067  00000+0  85522-4 0  9998
2 62794  88.9677  94.2929 0016245  97.6430 262.6567 13.51005714 58652
QIANFAN-65              
1 62795U 25016L   26066.08925508  .00000037  00000+0  38740-4 0  9995
2 62795  88.9673  94.3164 0016094  99.1741 261.1231 13.51008854 58633
QIANFAN-66              
1 62796U 25016M   26066.11807436  .00000037  00000+0  38275-4 0  9992
2 62796  88.9693  94.3000 0017204  95.3243 264.9871 13.50997012 58682
QIANFAN-67              
1 62797U 25016N   26066.12213677  .00000033  00000+0  31441-4 0  9996
2 62797  88.9683  94.3169 0017165 101.3538 258.9543 13.50995378 58658
QIANFAN-68              
1 62798U 25016P   26066.11403685  .00000043  00000+0  48182-4 0  9997
2 62798  88.9687  94.3661 0017225  99.8393 260.4704 13.51005356 58631
