[{"OBJECT_NAME":"QIANFAN-52","OBJECT_ID":"2024-232S","EPOCH":"2026-03-07T02:06:36.592128","MEAN_MOTION":13.51001011,"ECCENTRICITY":0.0013983,"INCLINATION":89.0057,"RA_OF_ASC_NODE":32.5935,"ARG_OF_PERICENTER":315.2042,"MEAN_ANOMALY":44.7979,"EPHEMERIS_TYPE":0,"CLASSIFICATION_TYPE":"U","NORAD_CAT_ID":62253,"ELEMENT_SET_NO":999,"REV_AT_EPOCH":7933,"BSTAR":0.00011066,"MEAN_MOTION_DOT":8.3e-7,"MEAN_MOTION_DDOT":0},{"OBJECT_NAME":"QIANFAN-53","OBJECT_ID":"2024-232T","EPOCH":"2026-03-07T03:23:35.219040","MEAN_MOTION":13.51003741,"ECCENTRICITY":0.0012903,"INCLINATION":89.0064,"RA_OF_ASC_NODE":32.6989,"ARG_OF_PERICENTER":316.8432,"MEAN_ANOMALY":43.1707,"EPHEMERIS_TYPE":0,"CLASSIFICATION_TYPE":"U","NORAD_CAT_ID":62254,"ELEMENT_SET_NO":999,"REV_AT_EPOCH":7930,"BSTAR":0.00011361,"MEAN_MOTION_DOT":8.5e-7,"MEAN_MOTION_DDOT":0},{"OBJECT_NAME":"QIANFAN-54","OBJECT_ID":"2024-232U","EPOCH":"2026-03-07T02:36:14.292864","MEAN_MOTION":13.51003198,"ECCENTRICITY":0.0003008,"INCLINATION":89.0056,"RA_OF_ASC_NODE":32.3733,"ARG_OF_PERICENTER":36.9711,"MEAN_ANOMALY":323.1646,"EPHEMERIS_TYPE":0,"CLASSIFICATION_TYPE":"U","NORAD_CAT_ID":62255,"ELEMENT_SET_NO":999,"REV_AT_EPOCH":11080,"BSTAR":0.00013468,"MEAN_MOTION_DOT":9.9e-7,"MEAN_MOTION_DDOT":0},{"OBJECT_NAME":"QIANFAN-55","OBJECT_ID":"2025-016A","EPOCH":"2026-03-07T03:13:45.922656","MEAN_MOTION":13.50996388,"ECCENTRICITY":0.0019464,"INCLINATION":88.9691,"RA_OF_ASC_NODE":94.4774,"ARG_OF_PERICENTER":103.808,"MEAN_ANOMALY":256.5239,"EPHEMERIS_TYPE":0,"CLASSIFICATION_TYPE":"U","NORAD_CAT_ID":62785,"ELEMENT_SET_NO":999,"REV_AT_EPOCH":5858,"BSTAR":3.9701e-5,"MEAN_MOTION_DOT":3.8e-7,"MEAN_MOTION_DDOT":0},{"OBJECT_NAME":"QIANFAN-56","OBJECT_ID":"2025-016B","EPOCH":"2026-03-07T03:37:20.256096","MEAN_MOTION":13.50998287,"ECCENTRICITY":0.0018097,"INCLINATION":88.9664,"RA_OF_ASC_NODE":94.2894,"ARG_OF_PERICENTER":105.8032,"MEAN_ANOMALY":254.5116,"EPHEMERIS_TYPE":0,"CLASSIFICATION_TYPE":"U","NORAD_CAT_ID":62786,"ELEMENT_SET_NO":999,"REV_AT_EPOCH":5863,"BSTAR":3.7555e-5,"MEAN_MOTION_DOT":3.7e-7,"MEAN_MOTION_DDOT":0},{"OBJECT_NAME":"QIANFAN-57","OBJECT_ID":"2025-016C","EPOCH":"2026-03-07T02:38:10.383360","MEAN_MOTION":13.5099723,"ECCENTRICITY":0.000138,"INCLINATION":88.9695,"RA_OF_ASC_NODE":94.4735,"ARG_OF_PERICENTER":101.1426,"MEAN_ANOMALY":258.988,"EPHEMERIS_TYPE":0,"CLASSIFICATION_TYPE":"U","NORAD_CAT_ID":62787,"ELEMENT_SET_NO":999,"REV_AT_EPOCH":5859,"BSTAR":5.9624e-5,"MEAN_MOTION_DOT":5.1e-7,"MEAN_MOTION_DDOT":0},{"OBJECT_NAME":"QIANFAN-58","OBJECT_ID":"2025-016D","EPOCH":"2026-03-07T03:43:15.372192","MEAN_MOTION":13.50998849,"ECCENTRICITY":0.0016031,"INCLINATION":88.9665,"RA_OF_ASC_NODE":94.2743,"ARG_OF_PERICENTER":99.0131,"MEAN_ANOMALY":261.2835,"EPHEMERIS_TYPE":0,"CLASSIFICATION_TYPE":"U","NORAD_CAT_ID":62788,"ELEMENT_SET_NO":999,"REV_AT_EPOCH":5864,"BSTAR":5.1863e-5,"MEAN_MOTION_DOT":4.6e-7,"MEAN_MOTION_DDOT":0},{"OBJECT_NAME":"QIANFAN-59","OBJECT_ID":"2025-016E","EPOCH":"2026-03-07T02:32:22.900704","MEAN_MOTION":13.50994722,"ECCENTRICITY":0.0016388,"INCLINATION":88.9688,"RA_OF_ASC_NODE":94.3732,"ARG_OF_PERICENTER":102.4281,"MEAN_ANOMALY":257.8705,"EPHEMERIS_TYPE":0,"CLASSIFICATION_TYPE":"U","NORAD_CAT_ID":62789,"ELEMENT_SET_NO":999,"REV_AT_EPOCH":5863,"BSTAR":6.7962e-5,"MEAN_MOTION_DOT":5.6e-7,"MEAN_MOTION_DDOT":0},{"OBJECT_NAME":"QIANFAN-60","OBJECT_ID":"2025-016F","EPOCH":"2026-03-07T03:19:47.318304","MEAN_MOTION":13.51009384,"ECCENTRICITY":0.0017959,"INCLINATION":88.9669,"RA_OF_ASC_NODE":94.3251,"ARG_OF_PERICENTER":99.4462,"MEAN_ANOMALY":260.872,"EPHEMERIS_TYPE":0,"CLASSIFICATION_TYPE":"U","NORAD_CAT_ID":62790,"ELEMENT_SET_NO":999,"REV_AT_EPOCH":5862,"BSTAR":3.1631e-5,"MEAN_MOTION_DOT":3.3e-7,"MEAN_MOTION_DDOT":0},{"OBJECT_NAME":"QIANFAN-61","OBJECT_ID":"2025-016G","EPOCH":"2026-03-05T23:39:19.133568","MEAN_MOTION":13.46909473,"ECCENTRICITY":0.0015183,"INCLINATION":88.9744,"RA_OF_ASC_NODE":94.6579,"ARG_OF_PERICENTER":117.5402,"MEAN_ANOMALY":242.7291,"EPHEMERIS_TYPE":0,"CLASSIFICATION_TYPE":"U","NORAD_CAT_ID":62791,"ELEMENT_SET_NO":999,"REV_AT_EPOCH":5848,"BSTAR":-3.0903,"MEAN_MOTION_DOT":-0.01754025,"MEAN_MOTION_DDOT":0},{"OBJECT_NAME":"QIANFAN-62","OBJECT_ID":"2025-016H","EPOCH":"2026-03-07T02:26:22.418304","MEAN_MOTION":13.50996652,"ECCENTRICITY":0.0018255,"INCLINATION":88.9683,"RA_OF_ASC_NODE":94.3722,"ARG_OF_PERICENTER":99.186,"MEAN_ANOMALY":261.1357,"EPHEMERIS_TYPE":0,"CLASSIFICATION_TYPE":"U","NORAD_CAT_ID":62792,"ELEMENT_SET_NO":999,"REV_AT_EPOCH":5862,"BSTAR":4.8414e-5,"MEAN_MOTION_DOT":4.4e-7,"MEAN_MOTION_DDOT":0},{"OBJECT_NAME":"QIANFAN-63","OBJECT_ID":"2025-016J","EPOCH":"2026-03-07T03:01:58.533888","MEAN_MOTION":13.50995305,"ECCENTRICITY":0.0018302,"INCLINATION":88.969,"RA_OF_ASC_NODE":94.3268,"ARG_OF_PERICENTER":103.8841,"MEAN_ANOMALY":256.4347,"EPHEMERIS_TYPE":0,"CLASSIFICATION_TYPE":"U","NORAD_CAT_ID":62793,"ELEMENT_SET_NO":999,"REV_AT_EPOCH":5866,"BSTAR":3.8706e-5,"MEAN_MOTION_DOT":3.7e-7,"MEAN_MOTION_DDOT":0},{"OBJECT_NAME":"QIANFAN-64","OBJECT_ID":"2025-016K","EPOCH":"2026-03-07T02:14:35.509920","MEAN_MOTION":13.51005714,"ECCENTRICITY":0.0016245,"INCLINATION":88.9677,"RA_OF_ASC_NODE":94.2929,"ARG_OF_PERICENTER":97.643,"MEAN_ANOMALY":262.6567,"EPHEMERIS_TYPE":0,"CLASSIFICATION_TYPE":"U","NORAD_CAT_ID":62794,"ELEMENT_SET_NO":999,"REV_AT_EPOCH":5865,"BSTAR":8.5522e-5,"MEAN_MOTION_DOT":6.7e-7,"MEAN_MOTION_DDOT":0},{"OBJECT_NAME":"QIANFAN-65","OBJECT_ID":"2025-016L","EPOCH":"2026-03-07T02:08:31.638912","MEAN_MOTION":13.51008854,"ECCENTRICITY":0.0016094,"INCLINATION":88.9673,"RA_OF_ASC_NODE":94.3164,"ARG_OF_PERICENTER":99.1741,"MEAN_ANOMALY":261.1231,"EPHEMERIS_TYPE":0,"CLASSIFICATION_TYPE":"U","NORAD_CAT_ID":62795,"ELEMENT_SET_NO":999,"REV_AT_EPOCH":5863,"BSTAR":3.874e-5,"MEAN_MOTION_DOT":3.7e-7,"MEAN_MOTION_DDOT":0},{"OBJECT_NAME":"QIANFAN-66","OBJECT_ID":"2025-016M","EPOCH":"2026-03-07T02:50:01.624704","MEAN_MOTION":13.50997012,"ECCENTRICITY":0.0017204,"INCLINATION":88.9693,"RA_OF_ASC_NODE":94.3,"ARG_OF_PERICENTER":95.3243,"MEAN_ANOMALY":264.9871,"EPHEMERIS_TYPE":0,"CLASSIFICATION_TYPE":"U","NORAD_CAT_ID":62796,"ELEMENT_SET_NO":999,"REV_AT_EPOCH":5868,"BSTAR":3.8275e-5,"MEAN_MOTION_DOT":3.7e-7,"MEAN_MOTION_DDOT":0},{"OBJECT_NAME":"QIANFAN-67","OBJECT_ID":"2025-016N","EPOCH":"2026-03-07T02:55:52.616928","MEAN_MOTION":13.50995378,"ECCENTRICITY":0.0017165,"INCLINATION":88.9683,"RA_OF_ASC_NODE":94.3169,"ARG_OF_PERICENTER":101.3538,"MEAN_ANOMALY":258.9543,"EPHEMERIS_TYPE":0,"CLASSIFICATION_TYPE":"U","NORAD_CAT_ID":62797,"ELEMENT_SET_NO":999,"REV_AT_EPOCH":5865,"BSTAR":3.1441e-5,"MEAN_MOTION_DOT":3.3e-7,"MEAN_MOTION_DDOT":0},{"OBJECT_NAME":"QIANFAN-68","OBJECT_ID":"2025-016P","EPOCH":"2026-03-07T02:44:12.783840","MEAN_MOTION":13.51005356,"ECCENTRICITY":0.0017225,"INCLINATION":88.9687,"RA_OF_ASC_NODE":94.3661,"ARG_OF_PERICENTER":99.8393,"MEAN_ANOMALY":260.4704,"EPHEMERIS_TYPE":0,"CLASSIFICATION_TYPE":"U","NORAD_CAT_ID":62798,"ELEMENT_SET_NO":999,"REV_AT_EPOCH":5863,"BSTAR":4.8182e-5,"MEAN_MOTION_DOT":4.3e-7,"MEAN_MOTION_DDOT":0}]
